{
  "aaData": [
    {
      "id": "1",
      "name": "Jennifer",
      "company": "Et Rutrum Non Associates",
      "zip": "35728",
      "city": "Fogo"
    },
    {
      "id": "2",
      "name": "Clark",
      "company": "Nam Ac Inc.",
      "zip": "7162",
      "city": "Machelen"
    },
    {
      "id": "3",
      "name": "Brendan",
      "company": "Enim Commodo Limited",
      "zip": "98611",
      "city": "Norman"
    },
    {
      "id": "4",
      "name": "Warren",
      "company": "Odio Etiam Institute",
      "zip": "10312",
      "city": "Sautin"
    },
    {
      "id": "5",
      "name": "Rajah",
      "company": "Neque Ltd",
      "zip": "29131",
      "city": "Glovertown"
    },
    {
      "id": "6",
      "name": "Demetrius",
      "company": "Euismod In Ltd",
      "zip": "1883",
      "city": "Kapolei"
    },
    {
      "id": "7",
      "name": "Keefe",
      "company": "Molestie Industries",
      "zip": "2211BM",
      "city": "Modena"
    },
    {
      "id": "8",
      "name": "Leila",
      "company": "Est LLC",
      "zip": "75286",
      "city": "Hondelange"
    },
    {
      "id": "9",
      "name": "Fritz",
      "company": "Et Ultrices Posuere Institute",
      "zip": "2324",
      "city": "Monte San Pietrangeli"
    },
    {
      "id": "10",
      "name": "Cassady",
      "company": "Vitae Erat Vel Company",
      "zip": "5898",
      "city": "Huntly"
    }
  ]
}
